start=new Date('2022-06-04T00:00:00.000Z').valueOf();
sats=[{"COUNTRY_CODE":"US","INCLINATION":"53.0547","MEAN_ANOMALY":"305.1356","PERIOD":"95.592","ELEMENT_SET_NO":"999","REV_AT_EPOCH":"5644","TLE_LINE1":"1 48653U 21044R   22154.57360860  .00001098  00000-0  92589-4 0  9991","FILE":"3479630","MEAN_ELEMENT_THEORY":"SGP4","GP_ID":"205297713","OBJECT_TYPE":"PAYLOAD","CLASSIFICATION_TYPE":"U","CENTER_NAME":"EARTH","BSTAR":"0.00009258900000","DECAY_DATE":null,"SITE":"AFETR","APOAPSIS":"548.404","ECCENTRICITY":"0.00017110","EPHEMERIS_TYPE":"0","OBJECT_NAME":"STARLINK-2720","TIME_SYSTEM":"UTC","EPOCH":"2022-06-03T13:45:59.783040","ARG_OF_PERICENTER":"54.9793","LAUNCH_DATE":"2021-05-26","RCS_SIZE":"LARGE","REF_FRAME":"TEME","NORAD_CAT_ID":"48653","SEMIMAJOR_AXIS":"6925.354","MEAN_MOTION":"15.06398219","MEAN_MOTION_DOT":"0.00001098","MEAN_MOTION_DDOT":"0.0000000000000","TLE_LINE2":"2 48653  53.0547 174.7625 0001711  54.9793 305.1356 15.06398219 56447","RA_OF_ASC_NODE":"174.7625","OBJECT_ID":"2021-044R","PERIAPSIS":"546.034"},{"PERIOD":"95.592","ELEMENT_SET_NO":"999","INCLINATION":"53.0540","MEAN_ANOMALY":"292.2224","COUNTRY_CODE":"US","MEAN_ELEMENT_THEORY":"SGP4","FILE":"3479630","TLE_LINE1":"1 48654U 21044S   22154.56992732 -.00000920  00000-0 -42874-4 0  9997","REV_AT_EPOCH":"5644","CENTER_NAME":"EARTH","GP_ID":"205296961","OBJECT_TYPE":"PAYLOAD","CLASSIFICATION_TYPE":"U","ARG_OF_PERICENTER":"67.8918","EPOCH":"2022-06-03T13:40:41.720448","TIME_SYSTEM":"UTC","EPHEMERIS_TYPE":"0","ECCENTRICITY":"0.00014400","OBJECT_NAME":"STARLINK-2651","SITE":"AFETR","DECAY_DATE":null,"APOAPSIS":"548.222","BSTAR":"-0.00004287400000","REF_FRAME":"TEME","RCS_SIZE":"LARGE","LAUNCH_DATE":"2021-05-26","NORAD_CAT_ID":"48654","SEMIMAJOR_AXIS":"6925.360","MEAN_MOTION":"15.06396329","MEAN_MOTION_DOT":"-0.00000920","PERIAPSIS":"546.228","OBJECT_ID":"2021-044S","RA_OF_ASC_NODE":"174.7761","TLE_LINE2":"2 48654  53.0540 174.7761 0001440  67.8918 292.2224 15.06396329 56443","MEAN_MOTION_DDOT":"0.0000000000000"},{"RCS_SIZE":"LARGE","LAUNCH_DATE":"2021-05-26","REF_FRAME":"TEME","NORAD_CAT_ID":"48655","SEMIMAJOR_AXIS":"6925.369","MEAN_MOTION":"15.06393371","MEAN_MOTION_DOT":"0.00000653","RA_OF_ASC_NODE":"175.0971","MEAN_MOTION_DDOT":"0.0000000000000","TLE_LINE2":"2 48655  53.0535 175.0971 0001525  57.6095 302.5041 15.06393371 56437","PERIAPSIS":"546.178","OBJECT_ID":"2021-044T","MEAN_ANOMALY":"302.5041","INCLINATION":"53.0535","COUNTRY_CODE":"US","ELEMENT_SET_NO":"999","PERIOD":"95.593","REV_AT_EPOCH":"5643","MEAN_ELEMENT_THEORY":"SGP4","TLE_LINE1":"1 48655U 21044T   22154.49991986  .00000653  00000-0  62755-4 0  9991","FILE":"3479192","CENTER_NAME":"EARTH","CLASSIFICATION_TYPE":"U","GP_ID":"205263651","OBJECT_TYPE":"PAYLOAD","OBJECT_NAME":"STARLINK-2657","ECCENTRICITY":"0.00015250","EPHEMERIS_TYPE":"0","DECAY_DATE":null,"SITE":"AFETR","BSTAR":"0.00006275500000","APOAPSIS":"548.290","EPOCH":"2022-06-03T11:59:53.075904","ARG_OF_PERICENTER":"57.6095","TIME_SYSTEM":"UTC"},{"PERIAPSIS":"546.161","OBJECT_ID":"2021-044U","RA_OF_ASC_NODE":"175.1121","MEAN_MOTION_DDOT":"0.0000000000000","TLE_LINE2":"2 48656  53.0549 175.1121 0001528  55.7750 304.3384 15.06398049 56438","MEAN_MOTION_DOT":"0.00000516","SEMIMAJOR_AXIS":"6925.355","MEAN_MOTION":"15.06398049","NORAD_CAT_ID":"48656","REF_FRAME":"TEME","RCS_SIZE":"LARGE","LAUNCH_DATE":"2021-05-26","ARG_OF_PERICENTER":"55.7750","EPOCH":"2022-06-03T11:54:33.816672","TIME_SYSTEM":"UTC","EPHEMERIS_TYPE":"0","ECCENTRICITY":"0.00015280","OBJECT_NAME":"STARLINK-2701","APOAPSIS":"548.278","DECAY_DATE":null,"SITE":"AFETR","BSTAR":"0.00005351000000","CENTER_NAME":"EARTH","OBJECT_TYPE":"PAYLOAD","GP_ID":"205262409","CLASSIFICATION_TYPE":"U","MEAN_ELEMENT_THEORY":"SGP4","FILE":"3479192","TLE_LINE1":"1 48656U 21044U   22154.49622473  .00000516  00000-0  53510-4 0  9991","REV_AT_EPOCH":"5643","PERIOD":"95.592","ELEMENT_SET_NO":"999","INCLINATION":"53.0549","MEAN_ANOMALY":"304.3384","COUNTRY_CODE":"US"},{"TIME_SYSTEM":"UTC","ARG_OF_PERICENTER":"62.4221","EPOCH":"2022-06-03T11:49:14.413152","SITE":"AFETR","DECAY_DATE":null,"APOAPSIS":"548.256","BSTAR":"0.00007170100000","OBJECT_NAME":"STARLINK-2734","ECCENTRICITY":"0.00015220","EPHEMERIS_TYPE":"0","CLASSIFICATION_TYPE":"U","OBJECT_TYPE":"PAYLOAD","GP_ID":"205262659","CENTER_NAME":"EARTH","TLE_LINE1":"1 48657U 21044V   22154.49252793  .00000787  00000-0  71701-4 0  9998","FILE":"3479192","MEAN_ELEMENT_THEORY":"SGP4","REV_AT_EPOCH":"5643","ELEMENT_SET_NO":"999","PERIOD":"95.592","COUNTRY_CODE":"US","MEAN_ANOMALY":"297.6922","INCLINATION":"53.0533","OBJECT_ID":"2021-044V","PERIAPSIS":"546.148","MEAN_MOTION_DDOT":"0.0000000000000","TLE_LINE2":"2 48657  53.0533 175.1224 0001522  62.4221 297.6922 15.06403705 56436","RA_OF_ASC_NODE":"175.1224","SEMIMAJOR_AXIS":"6925.337","MEAN_MOTION":"15.06403705","MEAN_MOTION_DOT":"0.00000787","NORAD_CAT_ID":"48657","REF_FRAME":"TEME","LAUNCH_DATE":"2021-05-26","RCS_SIZE":"LARGE"},{"LAUNCH_DATE":"2021-05-26","RCS_SIZE":"LARGE","REF_FRAME":"TEME","NORAD_CAT_ID":"48658","MEAN_MOTION":"15.06395808","SEMIMAJOR_AXIS":"6925.361","MEAN_MOTION_DOT":"0.00000801","TLE_LINE2":"2 48658  53.0541 175.4424 0001962  50.7939 309.3224 15.06395808 56424","MEAN_MOTION_DDOT":"0.0000000000000","RA_OF_ASC_NODE":"175.4424","OBJECT_ID":"2021-044W","PERIAPSIS":"545.868","COUNTRY_CODE":"US","INCLINATION":"53.0541","MEAN_ANOMALY":"309.3224","PERIOD":"95.592","ELEMENT_SET_NO":"999","REV_AT_EPOCH":"5642","TLE_LINE1":"1 48658U 21044W   22154.42249914  .00000801  00000-0  72686-4 0  9993","FILE":"3479192","MEAN_ELEMENT_THEORY":"SGP4","OBJECT_TYPE":"PAYLOAD","GP_ID":"205263408","CLASSIFICATION_TYPE":"U","CENTER_NAME":"EARTH","DECAY_DATE":null,"SITE":"AFETR","APOAPSIS":"548.585","BSTAR":"0.00007268600000","ECCENTRICITY":"0.00019620","EPHEMERIS_TYPE":"0","OBJECT_NAME":"STARLINK-2647","TIME_SYSTEM":"UTC","ARG_OF_PERICENTER":"50.7939","EPOCH":"2022-06-03T10:08:23.925696"},{"MEAN_MOTION_DOT":"-0.00000631","SEMIMAJOR_AXIS":"6925.361","MEAN_MOTION":"15.06395978","OBJECT_ID":"2021-044X","PERIAPSIS":"546.145","MEAN_MOTION_DDOT":"0.0000000000000","TLE_LINE2":"2 48659  53.0534 175.7526 0001561  56.9707 303.1432 15.06395978 56419","RA_OF_ASC_NODE":"175.7526","REF_FRAME":"TEME","LAUNCH_DATE":"2021-05-26","RCS_SIZE":"LARGE","NORAD_CAT_ID":"48659","OBJECT_TYPE":"PAYLOAD","GP_ID":"205264152","CLASSIFICATION_TYPE":"U","CENTER_NAME":"EARTH","TIME_SYSTEM":"UTC","EPOCH":"2022-06-03T08:27:32.735808","ARG_OF_PERICENTER":"56.9707","DECAY_DATE":null,"APOAPSIS":"548.307","SITE":"AFETR","BSTAR":"-0.00002345000000","ECCENTRICITY":"0.00015610","EPHEMERIS_TYPE":"0","OBJECT_NAME":"STARLINK-2717","PERIOD":"95.592","ELEMENT_SET_NO":"999","COUNTRY_CODE":"US","INCLINATION":"53.0534","MEAN_ANOMALY":"303.1432","FILE":"3479192","TLE_LINE1":"1 48659U 21044X   22154.35246222 -.00000631  00000-0 -23450-4 0  9993","MEAN_ELEMENT_THEORY":"SGP4","REV_AT_EPOCH":"5641"},{"NORAD_CAT_ID":"48660","REF_FRAME":"TEME","RCS_SIZE":"LARGE","LAUNCH_DATE":"2021-05-26","PERIAPSIS":"546.110","OBJECT_ID":"2021-044Y","RA_OF_ASC_NODE":"174.8792","MEAN_MOTION_DDOT":"0.0000000000000","TLE_LINE2":"2 48660  53.0522 174.8792 0001564  61.9875 298.1272 15.06406652 56448","MEAN_MOTION_DOT":"0.00001993","SEMIMAJOR_AXIS":"6925.328","MEAN_MOTION":"15.06406652","MEAN_ELEMENT_THEORY":"SGP4","TLE_LINE1":"1 48660U 21044Y   22154.54781129  .00001993  00000-0  15266-3 0  9991","FILE":"3479630","REV_AT_EPOCH":"5644","ELEMENT_SET_NO":"999","PERIOD":"95.592","MEAN_ANOMALY":"298.1272","INCLINATION":"53.0522","COUNTRY_CODE":"US","ARG_OF_PERICENTER":"61.9875","EPOCH":"2022-06-03T13:08:50.895456","TIME_SYSTEM":"UTC","OBJECT_NAME":"STARLINK-2688","ECCENTRICITY":"0.00015640","EPHEMERIS_TYPE":"0","APOAPSIS":"548.276","DECAY_DATE":null,"SITE":"AFETR","BSTAR":"0.00015266000000","CENTER_NAME":"EARTH","CLASSIFICATION_TYPE":"U","OBJECT_TYPE":"PAYLOAD","GP_ID":"205297963"},{"OBJECT_TYPE":"PAYLOAD","GP_ID":"205297714","CLASSIFICATION_TYPE":"U","CENTER_NAME":"EARTH","TIME_SYSTEM":"UTC","EPOCH":"2022-06-03T13:10:12.556416","ARG_OF_PERICENTER":"42.7382","SITE":"AFETR","DECAY_DATE":null,"APOAPSIS":"548.692","BSTAR":"0.00008344100000","EPHEMERIS_TYPE":"0","ECCENTRICITY":"0.00021170","OBJECT_NAME":"STARLINK-2708","PERIOD":"95.592","ELEMENT_SET_NO":"999","COUNTRY_CODE":"US","INCLINATION":"53.0524","MEAN_ANOMALY":"317.3771","TLE_LINE1":"1 48661U 21044Z   22154.54875644  .00000961  00000-0  83441-4 0  9993","FILE":"3479630","MEAN_ELEMENT_THEORY":"SGP4","REV_AT_EPOCH":"5658","SEMIMAJOR_AXIS":"6925.361","MEAN_MOTION_DOT":"0.00000961","MEAN_MOTION":"15.06395908","OBJECT_ID":"2021-044Z","PERIAPSIS":"545.760","MEAN_MOTION_DDOT":"0.0000000000000","TLE_LINE2":"2 48661  53.0524 164.8706 0002117  42.7382 317.3771 15.06395908 56584","RA_OF_ASC_NODE":"164.8706","REF_FRAME":"TEME","LAUNCH_DATE":"2021-05-26","RCS_SIZE":"LARGE","NORAD_CAT_ID":"48661"},{"SEMIMAJOR_AXIS":"6925.357","MEAN_MOTION_DOT":"-0.00000527","MEAN_MOTION":"15.06397275","OBJECT_ID":"2021-044AA","PERIAPSIS":"546.081","TLE_LINE2":"2 48662  53.0541 164.8921 0001648  61.6421 298.4734 15.06397275 56582","MEAN_MOTION_DDOT":"0.0000000000000","RA_OF_ASC_NODE":"164.8921","REF_FRAME":"TEME","LAUNCH_DATE":"2021-05-26","RCS_SIZE":"LARGE","NORAD_CAT_ID":"48662","GP_ID":"205296962","OBJECT_TYPE":"PAYLOAD","CLASSIFICATION_TYPE":"U","CENTER_NAME":"EARTH","TIME_SYSTEM":"UTC","ARG_OF_PERICENTER":"61.6421","EPOCH":"2022-06-03T13:04:52.475520","DECAY_DATE":null,"SITE":"AFETR","APOAPSIS":"548.363","BSTAR":"-0.00001648300000","EPHEMERIS_TYPE":"0","ECCENTRICITY":"0.00016480","OBJECT_NAME":"STARLINK-2726","PERIOD":"95.592","ELEMENT_SET_NO":"999","COUNTRY_CODE":"US","INCLINATION":"53.0541","MEAN_ANOMALY":"298.4734","TLE_LINE1":"1 48662U 21044AA  22154.54505180 -.00000527  00000-0 -16483-4 0  9991","FILE":"3479630","MEAN_ELEMENT_THEORY":"SGP4","REV_AT_EPOCH":"5658"}];
